INSAT-3D                
1 39216U 13038B   26164.93013235 -.00000331  00000+0  00000+0 0  9997
2 39216   1.9175  82.5789 0000558 308.0873 335.9433  1.00270661 47040
ICEYE-X7                
1 46496U 20068L   26164.94011495  .00012135  00000+0  40178-3 0  9991
2 46496  97.7489 131.3193 0006928 355.7369   4.3811 15.31452280314296
ICEYE-X71               
1 68494U 26067CG  26164.84176507  .00002894  00000+0  29347-3 0  9999
2 68494  97.7608 123.1290 0003583  59.6774 300.4799 14.91653961 11228
ICEYE-X73               
1 68496U 26067CJ  26164.88112011  .00002721  00000+0  27258-3 0  9993
2 68496  97.7603 123.2280 0001480  22.2950 337.8333 14.92206488 11239
ICEYE-X75               
1 68497U 26067CK  26164.88275000  .00001115  00000+0  11517-3 0  9999
2 68497  97.7591 123.2100 0001361  27.3300 332.7990 14.92113406 11230
ICEYE-X74               
1 68500U 26067CN  26164.84091175  .00002878  00000+0  29190-3 0  9992
2 68500  97.7614 123.1359 0003471  57.1847 302.9705 14.91655194 11223
ICEYE-X76               
1 68502U 26067CQ  26164.83673172  .00001311  00000+0  13585-3 0  9998
2 68502  97.7625 123.1467 0003091  50.5788 309.5704 14.91693321 11222
ICEYE-X72               
1 68504U 26067CS  26164.88877636  .00002941  00000+0  29484-3 0  9991
2 68504  97.7620 123.2325 0002406  32.9431 327.1938 14.92112465 11233
ICEYE-X78               
1 68995U 26100R   26164.72168156  .00003026  00000+0  30583-3 0  9993
2 68995  97.7377  62.2422 0003624 118.6253 241.5331 14.91754880  6189
ICEYE-X82               
1 68996U 26100S   26164.60038904  .00003083  00000+0  31512-3 0  9994
2 68996  97.7370  62.0911 0005004 140.4186 219.7399 14.91287729  6168
