{
 "generated_at": "2026-06-14T08:41:33Z",
 "sources": [
  {
   "name": "CelesTrak",
   "url": "https://celestrak.org/NORAD/elements/",
   "license": "frei verfügbar; Attribution. Ursprünglich USSPACECOM/Space-Track."
  },
  {
   "name": "GCAT (J. McDowell, planet4589.org)",
   "url": "https://planet4589.org/space/gcat/",
   "license": "CC-BY 4.0"
  }
 ],
 "satellites": [
  {
   "norad": 46496,
   "name": "ICEYE-X7",
   "intl": "2020-068L",
   "group": "sar",
   "gcat": {
    "class": "B",
    "category": "IMG-R",
    "owner": "ICEYE",
    "state": "FI"
   },
   "omm": {
    "OBJECT_NAME": "ICEYE-X7",
    "OBJECT_ID": "2020-068L",
    "EPOCH": "2026-06-13T22:33:45.931680",
    "MEAN_MOTION": 15.3145228,
    "ECCENTRICITY": 0.00069285,
    "INCLINATION": 97.7489,
    "RA_OF_ASC_NODE": 131.3193,
    "ARG_OF_PERICENTER": 355.7369,
    "MEAN_ANOMALY": 4.3811,
    "EPHEMERIS_TYPE": 0,
    "CLASSIFICATION_TYPE": "U",
    "NORAD_CAT_ID": 46496,
    "ELEMENT_SET_NO": 999,
    "REV_AT_EPOCH": 31429,
    "BSTAR": 0.00040177557,
    "MEAN_MOTION_DOT": 0.00012135,
    "MEAN_MOTION_DDOT": 0
   }
  },
  {
   "norad": 68494,
   "name": "ICEYE-X71",
   "intl": "2026-067CG",
   "group": "sar",
   "gcat": {
    "class": "B",
    "category": "IMG-R",
    "owner": "ICEYE",
    "state": "FI"
   },
   "omm": {
    "OBJECT_NAME": "ICEYE-X71",
    "OBJECT_ID": "2026-067CG",
    "EPOCH": "2026-06-13T20:12:08.502048",
    "MEAN_MOTION": 14.91653961,
    "ECCENTRICITY": 0.00035831,
    "INCLINATION": 97.7608,
    "RA_OF_ASC_NODE": 123.129,
    "ARG_OF_PERICENTER": 59.6774,
    "MEAN_ANOMALY": 300.4799,
    "EPHEMERIS_TYPE": 0,
    "CLASSIFICATION_TYPE": "U",
    "NORAD_CAT_ID": 68494,
    "ELEMENT_SET_NO": 999,
    "REV_AT_EPOCH": 1122,
    "BSTAR": 0.00029347485,
    "MEAN_MOTION_DOT": 0.00002894,
    "MEAN_MOTION_DDOT": 0
   }
  },
  {
   "norad": 68504,
   "name": "ICEYE-X72",
   "intl": "2026-067CS",
   "group": "sar",
   "gcat": {
    "class": "B",
    "category": "IMG-R",
    "owner": "ICEYE",
    "state": "FI"
   },
   "omm": {
    "OBJECT_NAME": "ICEYE-X72",
    "OBJECT_ID": "2026-067CS",
    "EPOCH": "2026-06-13T21:19:50.277504",
    "MEAN_MOTION": 14.92112465,
    "ECCENTRICITY": 0.00024067,
    "INCLINATION": 97.762,
    "RA_OF_ASC_NODE": 123.2325,
    "ARG_OF_PERICENTER": 32.9431,
    "MEAN_ANOMALY": 327.1938,
    "EPHEMERIS_TYPE": 0,
    "CLASSIFICATION_TYPE": "U",
    "NORAD_CAT_ID": 68504,
    "ELEMENT_SET_NO": 999,
    "REV_AT_EPOCH": 1123,
    "BSTAR": 0.00029483642,
    "MEAN_MOTION_DOT": 0.00002941,
    "MEAN_MOTION_DDOT": 0
   }
  },
  {
   "norad": 68496,
   "name": "ICEYE-X73",
   "intl": "2026-067CJ",
   "group": "sar",
   "gcat": {
    "class": "B",
    "category": "IMG-R",
    "owner": "ICEYE",
    "state": "FI"
   },
   "omm": {
    "OBJECT_NAME": "ICEYE-X73",
    "OBJECT_ID": "2026-067CJ",
    "EPOCH": "2026-06-13T21:08:48.777504",
    "MEAN_MOTION": 14.92206488,
    "ECCENTRICITY": 0.00014802,
    "INCLINATION": 97.7603,
    "RA_OF_ASC_NODE": 123.228,
    "ARG_OF_PERICENTER": 22.295,
    "MEAN_ANOMALY": 337.8333,
    "EPHEMERIS_TYPE": 0,
    "CLASSIFICATION_TYPE": "U",
    "NORAD_CAT_ID": 68496,
    "ELEMENT_SET_NO": 999,
    "REV_AT_EPOCH": 1123,
    "BSTAR": 0.00027257526,
    "MEAN_MOTION_DOT": 0.00002721,
    "MEAN_MOTION_DDOT": 0
   }
  },
  {
   "norad": 68500,
   "name": "ICEYE-X74",
   "intl": "2026-067CN",
   "group": "sar",
   "gcat": {
    "class": "B",
    "category": "IMG-R",
    "owner": "ICEYE",
    "state": "FI"
   },
   "omm": {
    "OBJECT_NAME": "ICEYE-X74",
    "OBJECT_ID": "2026-067CN",
    "EPOCH": "2026-06-13T20:10:54.775200",
    "MEAN_MOTION": 14.91655194,
    "ECCENTRICITY": 0.00034715,
    "INCLINATION": 97.7614,
    "RA_OF_ASC_NODE": 123.1359,
    "ARG_OF_PERICENTER": 57.1847,
    "MEAN_ANOMALY": 302.9705,
    "EPHEMERIS_TYPE": 0,
    "CLASSIFICATION_TYPE": "U",
    "NORAD_CAT_ID": 68500,
    "ELEMENT_SET_NO": 999,
    "REV_AT_EPOCH": 1122,
    "BSTAR": 0.00029189782,
    "MEAN_MOTION_DOT": 0.00002878,
    "MEAN_MOTION_DDOT": 0
   }
  },
  {
   "norad": 68497,
   "name": "ICEYE-X75",
   "intl": "2026-067CK",
   "group": "sar",
   "gcat": {
    "class": "B",
    "category": "IMG-R",
    "owner": "ICEYE",
    "state": "FI"
   },
   "omm": {
    "OBJECT_NAME": "ICEYE-X75",
    "OBJECT_ID": "2026-067CK",
    "EPOCH": "2026-06-13T21:11:09.600000",
    "MEAN_MOTION": 14.92113406,
    "ECCENTRICITY": 0.00013616,
    "INCLINATION": 97.7591,
    "RA_OF_ASC_NODE": 123.21,
    "ARG_OF_PERICENTER": 27.33,
    "MEAN_ANOMALY": 332.799,
    "EPHEMERIS_TYPE": 0,
    "CLASSIFICATION_TYPE": "U",
    "NORAD_CAT_ID": 68497,
    "ELEMENT_SET_NO": 999,
    "REV_AT_EPOCH": 1123,
    "BSTAR": 0.00011516985,
    "MEAN_MOTION_DOT": 0.00001115,
    "MEAN_MOTION_DDOT": 0
   }
  },
  {
   "norad": 68502,
   "name": "ICEYE-X76",
   "intl": "2026-067CQ",
   "group": "sar",
   "gcat": {
    "class": "B",
    "category": "IMG-R",
    "owner": "ICEYE",
    "state": "FI"
   },
   "omm": {
    "OBJECT_NAME": "ICEYE-X76",
    "OBJECT_ID": "2026-067CQ",
    "EPOCH": "2026-06-13T20:04:53.620608",
    "MEAN_MOTION": 14.91693321,
    "ECCENTRICITY": 0.00030917,
    "INCLINATION": 97.7625,
    "RA_OF_ASC_NODE": 123.1467,
    "ARG_OF_PERICENTER": 50.5788,
    "MEAN_ANOMALY": 309.5704,
    "EPHEMERIS_TYPE": 0,
    "CLASSIFICATION_TYPE": "U",
    "NORAD_CAT_ID": 68502,
    "ELEMENT_SET_NO": 999,
    "REV_AT_EPOCH": 1122,
    "BSTAR": 0.00013584797,
    "MEAN_MOTION_DOT": 0.00001311,
    "MEAN_MOTION_DDOT": 0
   }
  },
  {
   "norad": 68995,
   "name": "ICEYE-X78",
   "intl": "2026-100R",
   "group": "sar",
   "gcat": {
    "class": "B",
    "category": "IMG-R",
    "owner": "MON/WKL",
    "state": "PL"
   },
   "omm": {
    "OBJECT_NAME": "ICEYE-X78",
    "OBJECT_ID": "2026-100R",
    "EPOCH": "2026-06-13T17:19:13.286784",
    "MEAN_MOTION": 14.9175488,
    "ECCENTRICITY": 0.00036249,
    "INCLINATION": 97.7377,
    "RA_OF_ASC_NODE": 62.2422,
    "ARG_OF_PERICENTER": 118.6253,
    "MEAN_ANOMALY": 241.5331,
    "EPHEMERIS_TYPE": 0,
    "CLASSIFICATION_TYPE": "U",
    "NORAD_CAT_ID": 68995,
    "ELEMENT_SET_NO": 999,
    "REV_AT_EPOCH": 618,
    "BSTAR": 0.00030583318,
    "MEAN_MOTION_DOT": 0.00003026,
    "MEAN_MOTION_DDOT": 0
   }
  },
  {
   "norad": 68996,
   "name": "ICEYE-X82",
   "intl": "2026-100S",
   "group": "sar",
   "gcat": {
    "class": "B",
    "category": "IMG-R",
    "owner": "ICEYE",
    "state": "FI"
   },
   "omm": {
    "OBJECT_NAME": "ICEYE-X82",
    "OBJECT_ID": "2026-100S",
    "EPOCH": "2026-06-13T14:24:33.613056",
    "MEAN_MOTION": 14.91287729,
    "ECCENTRICITY": 0.0005004,
    "INCLINATION": 97.737,
    "RA_OF_ASC_NODE": 62.0911,
    "ARG_OF_PERICENTER": 140.4186,
    "MEAN_ANOMALY": 219.7399,
    "EPHEMERIS_TYPE": 0,
    "CLASSIFICATION_TYPE": "U",
    "NORAD_CAT_ID": 68996,
    "ELEMENT_SET_NO": 999,
    "REV_AT_EPOCH": 616,
    "BSTAR": 0.00031512,
    "MEAN_MOTION_DOT": 0.00003083,
    "MEAN_MOTION_DDOT": 0
   }
  },
  {
   "norad": 39216,
   "name": "INSAT-3D",
   "intl": "2013-038B",
   "group": "weather",
   "gcat": {
    "class": "C",
    "category": "MET",
    "owner": "ISRO",
    "state": "IN"
   },
   "omm": {
    "OBJECT_NAME": "INSAT-3D",
    "OBJECT_ID": "2013-038B",
    "EPOCH": "2026-06-13T22:19:23.435040",
    "MEAN_MOTION": 1.00270661,
    "ECCENTRICITY": 0.00005581,
    "INCLINATION": 1.9175,
    "RA_OF_ASC_NODE": 82.5789,
    "ARG_OF_PERICENTER": 308.0873,
    "MEAN_ANOMALY": 335.9433,
    "EPHEMERIS_TYPE": 0,
    "CLASSIFICATION_TYPE": "U",
    "NORAD_CAT_ID": 39216,
    "ELEMENT_SET_NO": 999,
    "REV_AT_EPOCH": 4704,
    "BSTAR": 0,
    "MEAN_MOTION_DOT": -0.00000331,
    "MEAN_MOTION_DDOT": 0
   }
  }
 ]
}
